<?xml version="1.0" encoding="UTF-8"?>
<gpx creator="Garmin Connect" version="1.1"
  xsi:schemaLocation="http://www.topografix.com/GPX/1/1 http://www.topografix.com/GPX/11.xsd"
  xmlns:ns3="http://www.garmin.com/xmlschemas/TrackPointExtension/v1"
  xmlns="http://www.topografix.com/GPX/1/1"
  xmlns:xsi="http://www.w3.org/2001/XMLSchema-instance" xmlns:ns2="http://www.garmin.com/xmlschemas/GpxExtensions/v3">
  <metadata>
    <name>武蔵嵐山駅-嵐山町役場-水神碑へ</name>
    <link href="connect.garmin.com">
      <text>Garmin Connect</text>
    </link>
    <time>2026-09-05T06:38:46.000Z</time>
  </metadata>
  <trk>
    <name>武蔵嵐山駅-嵐山町役場-水神碑へ</name>
    <trkseg>
      <trkpt lat="36.044759983196855" lon="139.32777995243669">
        <ele>59.4</ele>
      </trkpt>
      <trkpt lat="36.04479996487498" lon="139.32778992690146">
        <ele>59.52</ele>
      </trkpt>
      <trkpt lat="36.045039938762784" lon="139.3279599957168">
        <ele>59.49</ele>
      </trkpt>
      <trkpt lat="36.04519953019917" lon="139.327624887228">
        <ele>59.65</ele>
      </trkpt>
      <trkpt lat="36.04523993097246" lon="139.32753997854888">
        <ele>59.96</ele>
      </trkpt>
      <trkpt lat="36.04496542364359" lon="139.32734861969948">
        <ele>60.47</ele>
      </trkpt>
      <trkpt lat="36.04490993544459" lon="139.32730997912586">
        <ele>60.96</ele>
      </trkpt>
      <trkpt lat="36.044889986515045" lon="139.32724996469915">
        <ele>61.41</ele>
      </trkpt>
      <trkpt lat="36.045016972348094" lon="139.3268944043666">
        <ele>61.96</ele>
      </trkpt>
      <trkpt lat="36.04514387436211" lon="139.32653884403408">
        <ele>62.45</ele>
      </trkpt>
      <trkpt lat="36.04527086019516" lon="139.32618336752057">
        <ele>62.6</ele>
      </trkpt>
      <trkpt lat="36.04533992707729" lon="139.3259899970144">
        <ele>62.75</ele>
      </trkpt>
      <trkpt lat="36.04548082686961" lon="139.3256424833089">
        <ele>63.01</ele>
      </trkpt>
      <trkpt lat="36.04562172666192" lon="139.32529496960342">
        <ele>63.35</ele>
      </trkpt>
      <trkpt lat="36.045639999210835" lon="139.3252499587834">
        <ele>63.48</ele>
      </trkpt>
      <trkpt lat="36.04571996256709" lon="139.32507997378707">
        <ele>63.59</ele>
      </trkpt>
      <trkpt lat="36.04594359174371" lon="139.32535389438272">
        <ele>63.19</ele>
      </trkpt>
      <trkpt lat="36.04611994698644" lon="139.32556997984648">
        <ele>62.75</ele>
      </trkpt>
      <trkpt lat="36.04636184871197" lon="139.32532070204616">
        <ele>62.56</ele>
      </trkpt>
      <trkpt lat="36.0464499425143" lon="139.3252299260348">
        <ele>62.26</ele>
      </trkpt>
      <trkpt lat="36.04668010957539" lon="139.32549554854631">
        <ele>61.61</ele>
      </trkpt>
      <trkpt lat="36.04670994915068" lon="139.32552999816835">
        <ele>61.03</ele>
      </trkpt>
      <trkpt lat="36.04695034213364" lon="139.32527845725417">
        <ele>60.08</ele>
      </trkpt>
      <trkpt lat="36.0471907351166" lon="139.32502700015903">
        <ele>59.35</ele>
      </trkpt>
      <trkpt lat="36.047359965741634" lon="139.32484997436404">
        <ele>58.58</ele>
      </trkpt>
      <trkpt lat="36.04734999127686" lon="139.3248099926859">
        <ele>57.87</ele>
      </trkpt>
      <trkpt lat="36.04764754883945" lon="139.32468116283417">
        <ele>56.91</ele>
      </trkpt>
      <trkpt lat="36.04794510640204" lon="139.32455233298242">
        <ele>56.01</ele>
      </trkpt>
      <trkpt lat="36.04801995679736" lon="139.32451997883618">
        <ele>55.29</ele>
      </trkpt>
      <trkpt lat="36.04807997122407" lon="139.32447999715805">
        <ele>54.61</ele>
      </trkpt>
      <trkpt lat="36.048323046416044" lon="139.3242324795574">
        <ele>53.98</ele>
      </trkpt>
      <trkpt lat="36.04856620542705" lon="139.32398504577577">
        <ele>53.32</ele>
      </trkpt>
      <trkpt lat="36.04863996617496" lon="139.32390994392335">
        <ele>52.81</ele>
      </trkpt>
      <trkpt lat="36.04884993284941" lon="139.32371992617846">
        <ele>52.26</ele>
      </trkpt>
      <trkpt lat="36.04895998723805" lon="139.32386996224523">
        <ele>51.85</ele>
      </trkpt>
      <trkpt lat="36.04912410490215" lon="139.32420163415372">
        <ele>51.49</ele>
      </trkpt>
      <trkpt lat="36.04928830638528" lon="139.32453330606222">
        <ele>51.13</ele>
      </trkpt>
      <trkpt lat="36.04944999329746" lon="139.32485994882882">
        <ele>50.82</ele>
      </trkpt>
      <trkpt lat="36.049648728221655" lon="139.32516152970493">
        <ele>50.58</ele>
      </trkpt>
      <trkpt lat="36.04973992332816" lon="139.32529999874532">
        <ele>50.37</ele>
      </trkpt>
      <trkpt lat="36.04975995607674" lon="139.32518994435668">
        <ele>50.19</ele>
      </trkpt>
      <trkpt lat="36.04972994886339" lon="139.32512992992997">
        <ele>50.03</ele>
      </trkpt>
      <trkpt lat="36.049919966608286" lon="139.32509992271662">
        <ele>49.89</ele>
      </trkpt>
      <trkpt lat="36.050232192501426" lon="139.3250449374318">
        <ele>49.75</ele>
      </trkpt>
      <trkpt lat="36.0505445022136" lon="139.324989952147">
        <ele>49.63</ele>
      </trkpt>
      <trkpt lat="36.05085672810674" lon="139.3249349668622">
        <ele>49.5</ele>
      </trkpt>
      <trkpt lat="36.05099184438586" lon="139.3249111622572">
        <ele>49.38</ele>
      </trkpt>
      <trkpt lat="36.05130541138351" lon="139.32486900128424">
        <ele>49.27</ele>
      </trkpt>
      <trkpt lat="36.05161897838116" lon="139.32482675649226">
        <ele>49.15</ele>
      </trkpt>
      <trkpt lat="36.051932545378804" lon="139.32478451170027">
        <ele>49.02</ele>
      </trkpt>
      <trkpt lat="36.05224611237645" lon="139.3247422669083">
        <ele>48.86</ele>
      </trkpt>
      <trkpt lat="36.05255959555507" lon="139.32470010593534">
        <ele>48.78</ele>
      </trkpt>
      <trkpt lat="36.052873162552714" lon="139.32465786114335">
        <ele>48.72</ele>
      </trkpt>
      <trkpt lat="36.05318672955036" lon="139.32461561635137">
        <ele>48.69</ele>
      </trkpt>
      <trkpt lat="36.05324288830161" lon="139.3246080726385">
        <ele>48.69</ele>
      </trkpt>
      <trkpt lat="36.05317533016205" lon="139.32422862388194">
        <ele>48.74</ele>
      </trkpt>
      <trkpt lat="36.053171306848526" lon="139.32420599274337">
        <ele>48.84</ele>
      </trkpt>
      <trkpt lat="36.05348604731262" lon="139.32417942211032">
        <ele>49.1</ele>
      </trkpt>
      <trkpt lat="36.05370707809925" lon="139.32416081428528">
        <ele>49.52</ele>
      </trkpt>
      <trkpt lat="36.05402123183012" lon="139.3241267837584">
        <ele>49.69</ele>
      </trkpt>
      <trkpt lat="36.05433546938002" lon="139.32409275323153">
        <ele>50.07</ele>
      </trkpt>
      <trkpt lat="36.05464970692992" lon="139.32405880652368">
        <ele>50.46</ele>
      </trkpt>
      <trkpt lat="36.05479781515896" lon="139.32404279708862">
        <ele>50.94</ele>
      </trkpt>
      <trkpt lat="36.05508003383875" lon="139.32386920787394">
        <ele>51.53</ele>
      </trkpt>
      <trkpt lat="36.0553621686995" lon="139.3236957024783">
        <ele>52.31</ele>
      </trkpt>
      <trkpt lat="36.055447747930884" lon="139.3236431479454">
        <ele>53.17</ele>
      </trkpt>
      <trkpt lat="36.05546509847045" lon="139.3234930280596">
        <ele>54.2</ele>
      </trkpt>
      <trkpt lat="36.05532109737396" lon="139.3231473583728">
        <ele>55.3</ele>
      </trkpt>
      <trkpt lat="36.05517718009651" lon="139.32280177250504">
        <ele>56.57</ele>
      </trkpt>
      <trkpt lat="36.05503317900002" lon="139.32245610281825">
        <ele>57.92</ele>
      </trkpt>
      <trkpt lat="36.05501398444176" lon="139.3224100023508">
        <ele>59.25</ele>
      </trkpt>
      <trkpt lat="36.054779291152954" lon="139.32215049862862">
        <ele>60.78</ele>
      </trkpt>
      <trkpt lat="36.05454459786415" lon="139.3218909110874">
        <ele>62.42</ele>
      </trkpt>
      <trkpt lat="36.05430990457535" lon="139.3216314073652">
        <ele>64.24</ele>
      </trkpt>
      <trkpt lat="36.0541897919029" lon="139.32149863801897">
        <ele>65.32</ele>
      </trkpt>
      <trkpt lat="36.0543901193887" lon="139.3211984820664">
        <ele>66.65</ele>
      </trkpt>
      <trkpt lat="36.05447611771524" lon="139.32106973603368">
        <ele>67.92</ele>
      </trkpt>
      <trkpt lat="36.05455541051924" lon="139.3206937238574">
        <ele>68.7</ele>
      </trkpt>
      <trkpt lat="36.05458022095263" lon="139.32057646103203">
        <ele>69.81</ele>
      </trkpt>
      <trkpt lat="36.054771076887846" lon="139.3203512392938">
        <ele>71.01</ele>
      </trkpt>
      <trkpt lat="36.055084308609366" lon="139.32039650157094">
        <ele>71.5</ele>
      </trkpt>
      <trkpt lat="36.05539762414992" lon="139.32044176384807">
        <ele>71.7</ele>
      </trkpt>
      <trkpt lat="36.055439030751586" lon="139.32044779881835">
        <ele>71.7</ele>
      </trkpt>
      <trkpt lat="36.05567330494523" lon="139.32067293673754">
        <ele>71.47</ele>
      </trkpt>
      <trkpt lat="36.05586449615657" lon="139.32098197750747">
        <ele>70.68</ele>
      </trkpt>
      <trkpt lat="36.05589886195958" lon="139.3210375495255">
        <ele>69.95</ele>
      </trkpt>
      <trkpt lat="36.05620161630213" lon="139.3211464304477">
        <ele>69.15</ele>
      </trkpt>
      <trkpt lat="36.0563759598881" lon="139.32120912708342">
        <ele>68.25</ele>
      </trkpt>
      <trkpt lat="36.056563379243016" lon="139.32152152061462">
        <ele>67.11</ele>
      </trkpt>
      <trkpt lat="36.056749038398266" lon="139.32183098047972">
        <ele>65.72</ele>
      </trkpt>
      <trkpt lat="36.05706428177655" lon="139.32184296660125">
        <ele>64.29</ele>
      </trkpt>
      <trkpt lat="36.057312889024615" lon="139.32185243815184">
        <ele>62.65</ele>
      </trkpt>
      <trkpt lat="36.05751883238554" lon="139.3221467267722">
        <ele>61.13</ele>
      </trkpt>
      <trkpt lat="36.05759049765766" lon="139.32224915362895">
        <ele>59.77</ele>
      </trkpt>
      <trkpt lat="36.05753844603896" lon="139.32250656187534">
        <ele>58.52</ele>
      </trkpt>
      <trkpt lat="36.05730031616986" lon="139.32276128791273">
        <ele>57.29</ele>
      </trkpt>
      <trkpt lat="36.05708733201027" lon="139.3229890242219">
        <ele>56.1</ele>
      </trkpt>
      <trkpt lat="36.05709604918957" lon="139.32327853515744">
        <ele>54.96</ele>
      </trkpt>
      <trkpt lat="36.05678239837289" lon="139.32332010939717">
        <ele>54.09</ele>
      </trkpt>
      <trkpt lat="36.056610234081745" lon="139.3233429081738">
        <ele>53.27</ele>
      </trkpt>
      <trkpt lat="36.05629683472216" lon="139.32338666170835">
        <ele>52.56</ele>
      </trkpt>
      <trkpt lat="36.05607236735523" lon="139.32341792620718">
        <ele>51.94</ele>
      </trkpt>
      <trkpt lat="36.055792244151235" lon="139.32359646074474">
        <ele>51.44</ele>
      </trkpt>
      <trkpt lat="36.055517150089145" lon="139.3237718101591">
        <ele>51.0</ele>
      </trkpt>
      <trkpt lat="36.05522654950619" lon="139.32392293587327">
        <ele>50.67</ele>
      </trkpt>
      <trkpt lat="36.05510115623474" lon="139.32398823089898">
        <ele>50.52</ele>
      </trkpt>
      <trkpt lat="36.0548235476017" lon="139.32411689311266">
        <ele>50.47</ele>
      </trkpt>
      <trkpt lat="36.05450998060405" lon="139.32415863499045">
        <ele>50.55</ele>
      </trkpt>
      <trkpt lat="36.05419632978737" lon="139.32420046068728">
        <ele>50.56</ele>
      </trkpt>
      <trkpt lat="36.054099183529615" lon="139.32421336881816">
        <ele>50.64</ele>
      </trkpt>
      <trkpt lat="36.053785532712936" lon="139.32425536215305">
        <ele>50.88</ele>
      </trkpt>
      <trkpt lat="36.05375041253865" lon="139.32426005601883">
        <ele>51.02</ele>
      </trkpt>
      <trkpt lat="36.05372660793364" lon="139.32395428419113">
        <ele>51.24</ele>
      </trkpt>
      <trkpt lat="36.0537027195096" lon="139.3238765001297">
        <ele>51.33</ele>
      </trkpt>
      <trkpt lat="36.053535249084234" lon="139.32376300916076">
        <ele>51.28</ele>
      </trkpt>
      <trkpt lat="36.05354874394834" lon="139.32371548376977">
        <ele>51.34</ele>
      </trkpt>
      <trkpt lat="36.05374353937805" lon="139.32382754981518">
        <ele>51.49</ele>
      </trkpt>
      <trkpt lat="36.05378075502813" lon="139.32392209768295">
        <ele>51.45</ele>
      </trkpt>
      <trkpt lat="36.05379584245384" lon="139.32421672157943">
        <ele>51.32</ele>
      </trkpt>
      <trkpt lat="36.05348219163716" lon="139.32425829581916">
        <ele>51.04</ele>
      </trkpt>
      <trkpt lat="36.05341186746955" lon="139.32426759973168">
        <ele>50.93</ele>
      </trkpt>
      <trkpt lat="36.0532470792532" lon="139.32427564635873">
        <ele>50.81</ele>
      </trkpt>
      <trkpt lat="36.05331480503082" lon="139.32465501129627">
        <ele>50.65</ele>
      </trkpt>
      <trkpt lat="36.05333182029426" lon="139.32475031353533">
        <ele>50.52</ele>
      </trkpt>
      <trkpt lat="36.05337523855269" lon="139.32510956190526">
        <ele>50.39</ele>
      </trkpt>
      <trkpt lat="36.053338358178735" lon="139.32546336203814">
        <ele>50.29</ele>
      </trkpt>
      <trkpt lat="36.053214725106955" lon="139.3256081175059">
        <ele>50.25</ele>
      </trkpt>
      <trkpt lat="36.053052032366395" lon="139.3256590794772">
        <ele>50.14</ele>
      </trkpt>
      <trkpt lat="36.05301992967725" lon="139.3256599176675">
        <ele>50.04</ele>
      </trkpt>
      <trkpt lat="36.05305672623217" lon="139.3260457366705">
        <ele>49.94</ele>
      </trkpt>
      <trkpt lat="36.05309343896806" lon="139.32643155567348">
        <ele>49.84</ele>
      </trkpt>
      <trkpt lat="36.053099976852536" lon="139.32649995200336">
        <ele>49.73</ele>
      </trkpt>
      <trkpt lat="36.0530552174896" lon="139.32688451372087">
        <ele>49.63</ele>
      </trkpt>
      <trkpt lat="36.0530499368906" lon="139.32692994363606">
        <ele>49.55</ele>
      </trkpt>
      <trkpt lat="36.05303996242583" lon="139.32707997970283">
        <ele>49.47</ele>
      </trkpt>
      <trkpt lat="36.05282999575138" lon="139.3273399863392">
        <ele>49.4</ele>
      </trkpt>
      <trkpt lat="36.05277995578945" lon="139.32736999355257">
        <ele>49.31</ele>
      </trkpt>
      <trkpt lat="36.05246655642986" lon="139.32741374708712">
        <ele>49.23</ele>
      </trkpt>
      <trkpt lat="36.05215315707028" lon="139.3274575844407">
        <ele>49.15</ele>
      </trkpt>
      <trkpt lat="36.051849983632565" lon="139.32749999687076">
        <ele>49.07</ele>
      </trkpt>
      <trkpt lat="36.051885606721044" lon="139.32788589969277">
        <ele>48.99</ele>
      </trkpt>
      <trkpt lat="36.051921313628554" lon="139.32827188633382">
        <ele>48.85</ele>
      </trkpt>
      <trkpt lat="36.051957020536065" lon="139.32865778915584">
        <ele>48.76</ele>
      </trkpt>
      <trkpt lat="36.051959954202175" lon="139.32868997566402">
        <ele>48.72</ele>
      </trkpt>
      <trkpt lat="36.0519999358803" lon="139.32897998951375">
        <ele>48.74</ele>
      </trkpt>
      <trkpt lat="36.0519499797374" lon="139.3290099967271">
        <ele>48.73</ele>
      </trkpt>
      <trkpt lat="36.05164362117648" lon="139.32910261675715">
        <ele>48.75</ele>
      </trkpt>
      <trkpt lat="36.05133734643459" lon="139.32919532060623">
        <ele>48.8</ele>
      </trkpt>
      <trkpt lat="36.05118999257684" lon="139.32923999615014">
        <ele>48.86</ele>
      </trkpt>
      <trkpt lat="36.051267106086016" lon="139.32961659505963">
        <ele>48.95</ele>
      </trkpt>
      <trkpt lat="36.051344219595194" lon="139.32999327778816">
        <ele>49.07</ele>
      </trkpt>
      <trkpt lat="36.051359977573156" lon="139.33006997220218">
        <ele>49.2</ele>
      </trkpt>
      <trkpt lat="36.051229974254966" lon="139.3301099538803">
        <ele>49.44</ele>
      </trkpt>
      <trkpt lat="36.05096292681992" lon="139.33031673543155">
        <ele>49.62</ele>
      </trkpt>
      <trkpt lat="36.05091992765665" lon="139.3303499277681">
        <ele>49.83</ele>
      </trkpt>
      <trkpt lat="36.05065363459289" lon="139.33055805042386">
        <ele>50.05</ele>
      </trkpt>
      <trkpt lat="36.05059999041259" lon="139.33059995993972">
        <ele>50.29</ele>
      </trkpt>
      <trkpt lat="36.05036010034382" lon="139.33085217140615">
        <ele>50.61</ele>
      </trkpt>
      <trkpt lat="36.05020998045802" lon="139.33100991882384">
        <ele>50.95</ele>
      </trkpt>
      <trkpt lat="36.04997386224568" lon="139.3312674947083">
        <ele>51.29</ele>
      </trkpt>
      <trkpt lat="36.049769930541515" lon="139.33148995041847">
        <ele>51.56</ele>
      </trkpt>
      <trkpt lat="36.04961997829378" lon="139.33169991709292">
        <ele>51.83</ele>
      </trkpt>
      <trkpt lat="36.04982667602599" lon="139.33199336752295">
        <ele>52.03</ele>
      </trkpt>
      <trkpt lat="36.04992994107306" lon="139.33213996700943">
        <ele>52.24</ele>
      </trkpt>
      <trkpt lat="36.05000998824835" lon="139.33231992647052">
        <ele>52.57</ele>
      </trkpt>
      <trkpt lat="36.05009992606938" lon="139.33268998749554">
        <ele>52.96</ele>
      </trkpt>
      <trkpt lat="36.050199922174215" lon="139.33288997970521">
        <ele>53.26</ele>
      </trkpt>
      <trkpt lat="36.050199922174215" lon="139.3330099247396">
        <ele>53.57</ele>
      </trkpt>
      <trkpt lat="36.05002515949309" lon="139.33333329856396">
        <ele>53.98</ele>
      </trkpt>
      <trkpt lat="36.04999992996454" lon="139.33337998576462">
        <ele>54.31</ele>
      </trkpt>
      <trkpt lat="36.049799770116806" lon="139.3336801417172">
        <ele>54.6</ele>
      </trkpt>
      <trkpt lat="36.04977998882532" lon="139.3337099812925">
        <ele>54.91</ele>
      </trkpt>
      <trkpt lat="36.04954646900296" lon="139.33344880118966">
        <ele>55.25</ele>
      </trkpt>
      <trkpt lat="36.049313032999635" lon="139.33318762108684">
        <ele>55.48</ele>
      </trkpt>
      <trkpt lat="36.04918998666108" lon="139.33304999023676">
        <ele>55.72</ele>
      </trkpt>
      <trkpt lat="36.04899996891618" lon="139.33281999081373">
        <ele>55.99</ele>
      </trkpt>
      <trkpt lat="36.04868455789983" lon="139.3328240979463">
        <ele>56.32</ele>
      </trkpt>
      <trkpt lat="36.04836914688349" lon="139.33282828889787">
        <ele>56.66</ele>
      </trkpt>
      <trkpt lat="36.048239981755614" lon="139.3328299652785">
        <ele>56.99</ele>
      </trkpt>
      <trkpt lat="36.04792566038668" lon="139.33279710821807">
        <ele>57.23</ele>
      </trkpt>
      <trkpt lat="36.04761133901775" lon="139.33276425115764">
        <ele>57.38</ele>
      </trkpt>
      <trkpt lat="36.04756993241608" lon="139.33275997638702">
        <ele>57.58</ele>
      </trkpt>
      <trkpt lat="36.047267094254494" lon="139.3326512631029">
        <ele>57.83</ele>
      </trkpt>
      <trkpt lat="36.04717992246151" lon="139.33261999860406">
        <ele>58.08</ele>
      </trkpt>
      <trkpt lat="36.047169947996736" lon="139.33254992589355">
        <ele>58.31</ele>
      </trkpt>
      <trkpt lat="36.04713063687086" lon="139.33216460980475">
        <ele>58.6</ele>
      </trkpt>
      <trkpt lat="36.04709132574499" lon="139.33177920989692">
        <ele>58.91</ele>
      </trkpt>
      <trkpt lat="36.0470699518919" lon="139.33156999759376">
        <ele>59.17</ele>
      </trkpt>
      <trkpt lat="36.04704991914332" lon="139.33142993599176">
        <ele>59.36</ele>
      </trkpt>
      <trkpt lat="36.04702997021377" lon="139.33137997984886">
        <ele>59.53</ele>
      </trkpt>
      <trkpt lat="36.04689996689558" lon="139.33164996095002">
        <ele>59.69</ele>
      </trkpt>
      <trkpt lat="36.0468299780041" lon="139.3315899465233">
        <ele>59.83</ele>
      </trkpt>
      <trkpt lat="36.04680994525552" lon="139.33154996484518">
        <ele>59.96</ele>
      </trkpt>
      <trkpt lat="36.04649780318141" lon="139.3316055368632">
        <ele>60.07</ele>
      </trkpt>
      <trkpt lat="36.04618557728827" lon="139.33166119270027">
        <ele>60.21</ele>
      </trkpt>
      <trkpt lat="36.04587343521416" lon="139.33171684853733">
        <ele>60.27</ele>
      </trkpt>
      <trkpt lat="36.04556120932102" lon="139.33177242055535">
        <ele>60.36</ele>
      </trkpt>
      <trkpt lat="36.045249067246914" lon="139.3318280763924">
        <ele>60.45</ele>
      </trkpt>
      <trkpt lat="36.04506994597614" lon="139.33185992762446">
        <ele>60.54</ele>
      </trkpt>
      <trkpt lat="36.04487992823124" lon="139.33189999312162">
        <ele>60.62</ele>
      </trkpt>
      <trkpt lat="36.04456627741456" lon="139.33194106444716">
        <ele>60.79</ele>
      </trkpt>
      <trkpt lat="36.044269977137446" lon="139.33197995647788">
        <ele>60.88</ele>
      </trkpt>
      <trkpt lat="36.044159922748804" lon="139.3319699820131">
        <ele>60.97</ele>
      </trkpt>
      <trkpt lat="36.043867729604244" lon="139.3321160785854">
        <ele>61.06</ele>
      </trkpt>
      <trkpt lat="36.043859934434295" lon="139.33211993426085">
        <ele>61.16</ele>
      </trkpt>
      <trkpt lat="36.04377997107804" lon="139.33217994868755">
        <ele>61.24</ele>
      </trkpt>
      <trkpt lat="36.043654242530465" lon="139.33182371780276">
        <ele>61.45</ele>
      </trkpt>
      <trkpt lat="36.04353999719024" lon="139.33149992488325">
        <ele>61.63</ele>
      </trkpt>
      <trkpt lat="36.04350998997688" lon="139.33118996210396">
        <ele>61.76</ele>
      </trkpt>
      <trkpt lat="36.043279990553856" lon="139.33121996931732">
        <ele>61.88</ele>
      </trkpt>
      <trkpt lat="36.042999951168895" lon="139.33124997653067">
        <ele>61.93</ele>
      </trkpt>
      <trkpt lat="36.04293993674219" lon="139.33107999153435">
        <ele>62.07</ele>
      </trkpt>
      <trkpt lat="36.042869947850704" lon="139.33095996268094">
        <ele>62.22</ele>
      </trkpt>
      <trkpt lat="36.04263994842768" lon="139.33116992935538">
        <ele>62.34</ele>
      </trkpt>
      <trkpt lat="36.04250994510949" lon="139.33132993988693">
        <ele>62.5</ele>
      </trkpt>
      <trkpt lat="36.04241472668946" lon="139.33150788769126">
        <ele>62.71</ele>
      </trkpt>
      <trkpt lat="36.042159581556916" lon="139.3312796484679">
        <ele>62.98</ele>
      </trkpt>
      <trkpt lat="36.04208506643772" lon="139.33121301233768">
        <ele>63.24</ele>
      </trkpt>
      <trkpt lat="36.04178407229483" lon="139.33109683915973">
        <ele>63.52</ele>
      </trkpt>
      <trkpt lat="36.04159916751087" lon="139.3310254253447">
        <ele>63.81</ele>
      </trkpt>
      <trkpt lat="36.04137352667749" lon="139.3309878744185">
        <ele>64.12</ele>
      </trkpt>
      <trkpt lat="36.04105945676565" lon="139.33095258660614">
        <ele>64.42</ele>
      </trkpt>
      <trkpt lat="36.0410395078361" lon="139.3309503234923">
        <ele>64.66</ele>
      </trkpt>
      <trkpt lat="36.04089223779738" lon="139.33077941648662">
        <ele>64.88</ele>
      </trkpt>
      <trkpt lat="36.04064061306417" lon="139.33067221194506">
        <ele>65.05</ele>
      </trkpt>
      <trkpt lat="36.04036744683981" lon="139.33067539706826">
        <ele>65.18</ele>
      </trkpt>
      <trkpt lat="36.0401158221066" lon="139.33063784614205">
        <ele>65.28</ele>
      </trkpt>
      <trkpt lat="36.03987283073366" lon="139.33060029521585">
        <ele>65.34</ele>
      </trkpt>
      <trkpt lat="36.03962774388492" lon="139.33064321056008">
        <ele>65.35</ele>
      </trkpt>
      <trkpt lat="36.039312751963735" lon="139.3306229263544">
        <ele>65.31</ele>
      </trkpt>
      <trkpt lat="36.039002956822515" lon="139.33060297742486">
        <ele>65.23</ele>
      </trkpt>
      <trkpt lat="36.0387275274843" lon="139.33052795939147">
        <ele>65.1</ele>
      </trkpt>
      <trkpt lat="36.03843499906361" lon="139.33038253337145">
        <ele>64.84</ele>
      </trkpt>
      <trkpt lat="36.03816132992506" lon="139.33024649508297">
        <ele>64.54</ele>
      </trkpt>
      <trkpt lat="36.03806368075311" lon="139.33022235520184">
        <ele>64.27</ele>
      </trkpt>
      <trkpt lat="36.03797039017081" lon="139.3302330840379">
        <ele>63.94</ele>
      </trkpt>
      <trkpt lat="36.0376928653568" lon="139.3304175697267">
        <ele>63.48</ele>
      </trkpt>
      <trkpt lat="36.03765204548836" lon="139.33044472709298">
        <ele>63.08</ele>
      </trkpt>
      <trkpt lat="36.03756085038185" lon="139.33047959581017">
        <ele>62.66</ele>
      </trkpt>
      <trkpt lat="36.03746546432376" lon="139.33049300685525">
        <ele>62.14</ele>
      </trkpt>
      <trkpt lat="36.037385165691376" lon="139.33047959581017">
        <ele>61.64</ele>
      </trkpt>
      <trkpt lat="36.03720294311643" lon="139.33042326942086">
        <ele>61.11</ele>
      </trkpt>
      <trkpt lat="36.03703807108104" lon="139.33034288696945">
        <ele>60.48</ele>
      </trkpt>
      <trkpt lat="36.03698090650141" lon="139.33033660054207">
        <ele>59.84</ele>
      </trkpt>
      <trkpt lat="36.03668024763465" lon="139.3304540310055">
        <ele>59.11</ele>
      </trkpt>
      <trkpt lat="36.03650623932481" lon="139.33052200824022">
        <ele>58.34</ele>
      </trkpt>
      <trkpt lat="36.036200635135174" lon="139.33061823248863">
        <ele>57.56</ele>
      </trkpt>
      <trkpt lat="36.03600491769612" lon="139.33067983947694">
        <ele>56.7</ele>
      </trkpt>
      <trkpt lat="36.03589880280197" lon="139.33069358579814">
        <ele>55.86</ele>
      </trkpt>
      <trkpt lat="36.0355878341943" lon="139.3307584617287">
        <ele>54.9</ele>
      </trkpt>
      <trkpt lat="36.03556470014155" lon="139.33076332323253">
        <ele>53.93</ele>
      </trkpt>
      <trkpt lat="36.03538893163204" lon="139.33078578673303">
        <ele>52.89</ele>
      </trkpt>
      <trkpt lat="36.03507368825376" lon="139.33079986833036">
        <ele>51.75</ele>
      </trkpt>
      <trkpt lat="36.03505273349583" lon="139.3308007903397">
        <ele>50.67</ele>
      </trkpt>
      <trkpt lat="36.0347555950284" lon="139.33083943091333">
        <ele>49.47</ele>
      </trkpt>
      <trkpt lat="36.03448988869786" lon="139.3308985233307">
        <ele>48.2</ele>
      </trkpt>
      <trkpt lat="36.03437153622508" lon="139.33094018138945">
        <ele>47.03</ele>
      </trkpt>
      <trkpt lat="36.034094765782356" lon="139.33112651109695">
        <ele>45.91</ele>
      </trkpt>
      <trkpt lat="36.033885553479195" lon="139.3312672432512">
        <ele>44.78</ele>
      </trkpt>
      <trkpt lat="36.03372504003346" lon="139.33132625184953">
        <ele>43.51</ele>
      </trkpt>
      <trkpt lat="36.0335192643106" lon="139.33134234510362">
        <ele>42.07</ele>
      </trkpt>
      <trkpt lat="36.03320410475135" lon="139.33132474310696">
        <ele>41.05</ele>
      </trkpt>
      <trkpt lat="36.03313495405018" lon="139.3313208874315">
        <ele>40.24</ele>
      </trkpt>
      <trkpt lat="36.03282054886222" lon="139.3312902096659">
        <ele>39.43</ele>
      </trkpt>
      <trkpt lat="36.03250605985522" lon="139.3312595319003">
        <ele>38.78</ele>
      </trkpt>
      <trkpt lat="36.03242475539446" lon="139.33125156909227">
        <ele>38.36</ele>
      </trkpt>
      <trkpt lat="36.03211269713938" lon="139.33119448833168">
        <ele>38.23</ele>
      </trkpt>
      <trkpt lat="36.0318389441818" lon="139.3311443645507">
        <ele>38.19</ele>
      </trkpt>
      <trkpt lat="36.03162202052772" lon="139.3311443645507">
        <ele>38.19</ele>
      </trkpt>
      <trkpt lat="36.031507439911366" lon="139.33120965957642">
        <ele>38.29</ele>
      </trkpt>
      <trkpt lat="36.03141808882356" lon="139.33128912001848">
        <ele>38.45</ele>
      </trkpt>
      <trkpt lat="36.031188340857625" lon="139.33155524544418">
        <ele>38.71</ele>
      </trkpt>
      <trkpt lat="36.031140396371484" lon="139.3316108174622">
        <ele>39.07</ele>
      </trkpt>
      <trkpt lat="36.0310497879982" lon="139.33168835006654">
        <ele>39.45</ele>
      </trkpt>
      <trkpt lat="36.03090176358819" lon="139.33178239502013">
        <ele>39.86</ele>
      </trkpt>
      <trkpt lat="36.03064955212176" lon="139.33178633451462">
        <ele>40.36</ele>
      </trkpt>
      <trkpt lat="36.03035258129239" lon="139.33165532536805">
        <ele>41.06</ele>
      </trkpt>
      <trkpt lat="36.03008167818189" lon="139.33153579942882">
        <ele>41.66</ele>
      </trkpt>
      <trkpt lat="36.0299326479435" lon="139.33147117495537">
        <ele>42.19</ele>
      </trkpt>
      <trkpt lat="36.02975235320628" lon="139.33142348192632">
        <ele>42.7</ele>
      </trkpt>
      <trkpt lat="36.02944264188409" lon="139.3313497211784">
        <ele>43.19</ele>
      </trkpt>
      <trkpt lat="36.02930107153952" lon="139.33131602592766">
        <ele>43.71</ele>
      </trkpt>
      <trkpt lat="36.028989935293794" lon="139.33125232346356">
        <ele>44.14</ele>
      </trkpt>
      <trkpt lat="36.028678799048066" lon="139.3311887048185">
        <ele>44.57</ele>
      </trkpt>
      <trkpt lat="36.02859380654991" lon="139.3311712704599">
        <ele>44.93</ele>
      </trkpt>
      <trkpt lat="36.02828552015126" lon="139.3310891278088">
        <ele>45.26</ele>
      </trkpt>
      <trkpt lat="36.02797723375261" lon="139.3310069013387">
        <ele>45.45</ele>
      </trkpt>
      <trkpt lat="36.027862234041095" lon="139.3309762235731">
        <ele>45.68</ele>
      </trkpt>
      <trkpt lat="36.02756132371724" lon="139.33085979893804">
        <ele>45.88</ele>
      </trkpt>
      <trkpt lat="36.02726032957435" lon="139.33074337430298">
        <ele>46.05</ele>
      </trkpt>
      <trkpt lat="36.02716913446784" lon="139.33070808649063">
        <ele>46.14</ele>
      </trkpt>
      <trkpt lat="36.02686017751694" lon="139.3306295480579">
        <ele>46.3</ele>
      </trkpt>
      <trkpt lat="36.026551304385066" lon="139.33055109344423">
        <ele>46.4</ele>
      </trkpt>
      <trkpt lat="36.02647972293198" lon="139.33053290471435">
        <ele>46.51</ele>
      </trkpt>
      <trkpt lat="36.026482321321964" lon="139.33047188445926">
        <ele>46.56</ele>
      </trkpt>
      <trkpt lat="36.0267411544919" lon="139.33052293024957">
        <ele>46.52</ele>
      </trkpt>
      <trkpt lat="36.02704944089055" lon="139.33060515671968">
        <ele>46.51</ele>
      </trkpt>
      <trkpt lat="36.02714063599706" lon="139.33062946423888">
        <ele>46.49</ele>
      </trkpt>
      <trkpt lat="36.027443055063486" lon="139.33073977008462">
        <ele>46.46</ele>
      </trkpt>
      <trkpt lat="36.02773097343743" lon="139.33084479533136">
        <ele>46.4</ele>
      </trkpt>
      <trkpt lat="36.027867598459125" lon="139.33091453276575">
        <ele>46.31</ele>
      </trkpt>
      <trkpt lat="36.02817571721971" lon="139.33099776506424">
        <ele>46.23</ele>
      </trkpt>
      <trkpt lat="36.02829490788281" lon="139.3310298677534">
        <ele>46.11</ele>
      </trkpt>
      <trkpt lat="36.02845114655793" lon="139.33106339536607">
        <ele>45.92</ele>
      </trkpt>
      <trkpt lat="36.02875901386142" lon="139.33114788495004">
        <ele>45.68</ele>
      </trkpt>
      <trkpt lat="36.028815507888794" lon="139.3311633914709">
        <ele>45.39</ele>
      </trkpt>
      <trkpt lat="36.02912555448711" lon="139.3312347214669">
        <ele>45.02</ele>
      </trkpt>
      <trkpt lat="36.02927869185805" lon="139.33126992546022">
        <ele>44.66</ele>
      </trkpt>
      <trkpt lat="36.02958739735186" lon="139.33134938590229">
        <ele>44.21</ele>
      </trkpt>
      <trkpt lat="36.02962654083967" lon="139.3313594441861">
        <ele>43.76</ele>
      </trkpt>
      <trkpt lat="36.02989551611245" lon="139.3314210511744">
        <ele>43.33</ele>
      </trkpt>
      <trkpt lat="36.030196929350495" lon="139.33153579942882">
        <ele>42.83</ele>
      </trkpt>
      <trkpt lat="36.030268678441644" lon="139.33156312443316">
        <ele>42.28</ele>
      </trkpt>
      <trkpt lat="36.03049658238888" lon="139.33167887851596">
        <ele>41.62</ele>
      </trkpt>
      <trkpt lat="36.03060613386333" lon="139.33171383105218">
        <ele>41.05</ele>
      </trkpt>
      <trkpt lat="36.030707051977515" lon="139.3317270744592">
        <ele>40.47</ele>
      </trkpt>
      <trkpt lat="36.03089354932308" lon="139.33171911165118">
        <ele>39.97</ele>
      </trkpt>
      <trkpt lat="36.03099765256047" lon="139.33165884576738">
        <ele>39.53</ele>
      </trkpt>
      <trkpt lat="36.031077951192856" lon="139.33159304782748">
        <ele>39.1</ele>
      </trkpt>
      <trkpt lat="36.03130644187331" lon="139.33132532984018">
        <ele>38.67</ele>
      </trkpt>
      <trkpt lat="36.031325217336416" lon="139.33130336925387">
        <ele>38.38</ele>
      </trkpt>
      <trkpt lat="36.031453208997846" lon="139.33117462322116">
        <ele>38.14</ele>
      </trkpt>
      <trkpt lat="36.03158329613507" lon="139.33109952136874">
        <ele>37.96</ele>
      </trkpt>
      <trkpt lat="36.03179158642888" lon="139.33108896017075">
        <ele>37.87</ele>
      </trkpt>
      <trkpt lat="36.0319391079247" lon="139.3311155308038">
        <ele>37.83</ele>
      </trkpt>
      <trkpt lat="36.03225192055106" lon="139.33116506785154">
        <ele>37.89</ele>
      </trkpt>
      <trkpt lat="36.03248133324087" lon="139.33120136149228">
        <ele>38.16</ele>
      </trkpt>
      <trkpt lat="36.032795403152704" lon="139.3312370683998">
        <ele>38.73</ele>
      </trkpt>
      <trkpt lat="36.03288265876472" lon="139.33124695904553">
        <ele>39.42</ele>
      </trkpt>
      <trkpt lat="36.03319748304784" lon="139.331269338727">
        <ele>40.28</ele>
      </trkpt>
      <trkpt lat="36.033409712836146" lon="139.33128450997174">
        <ele>41.2</ele>
      </trkpt>
      <trkpt lat="36.03370249271393" lon="139.3312844261527">
        <ele>42.51</ele>
      </trkpt>
      <trkpt lat="36.033819671720266" lon="139.33123891241848">
        <ele>43.93</ele>
      </trkpt>
      <trkpt lat="36.03405822068453" lon="139.33108334429562">
        <ele>45.11</ele>
      </trkpt>
      <trkpt lat="36.034318478778005" lon="139.33090631850064">
        <ele>46.29</ele>
      </trkpt>
      <trkpt lat="36.03446817956865" lon="139.33083926327527">
        <ele>47.58</ele>
      </trkpt>
      <trkpt lat="36.03478090837598" lon="139.33078872039914">
        <ele>49.01</ele>
      </trkpt>
      <trkpt lat="36.03484989143908" lon="139.33077757246792">
        <ele>50.22</ele>
      </trkpt>
      <trkpt lat="36.03516488336027" lon="139.3307563662529">
        <ele>51.53</ele>
      </trkpt>
      <trkpt lat="36.03536831215024" lon="139.33074270375073">
        <ele>52.77</ele>
      </trkpt>
      <trkpt lat="36.03568053804338" lon="139.33068755082786">
        <ele>54.04</ele>
      </trkpt>
      <trkpt lat="36.0357847250998" lon="139.33066911064088">
        <ele>55.13</ele>
      </trkpt>
      <trkpt lat="36.03600600734353" lon="139.33060322888196">
        <ele>56.18</ele>
      </trkpt>
      <trkpt lat="36.0363116953522" lon="139.3305076751858">
        <ele>57.26</ele>
      </trkpt>
      <trkpt lat="36.03656340390444" lon="139.33042896911502">
        <ele>58.29</ele>
      </trkpt>
      <trkpt lat="36.03678032755852" lon="139.33035654947162">
        <ele>59.26</ele>
      </trkpt>
      <trkpt lat="36.03691477328539" lon="139.33029091916978">
        <ele>60.12</ele>
      </trkpt>
      <trkpt lat="36.03702323511243" lon="139.33021439239383">
        <ele>60.93</ele>
      </trkpt>
      <trkpt lat="36.03728231973946" lon="139.329992858693">
        <ele>61.76</ele>
      </trkpt>
      <trkpt lat="36.03754140436649" lon="139.3297714088112">
        <ele>62.53</ele>
      </trkpt>
      <trkpt lat="36.03761315345764" lon="139.32971005328">
        <ele>63.21</ele>
      </trkpt>
      <trkpt lat="36.037894282490015" lon="139.32953386567533">
        <ele>63.91</ele>
      </trkpt>
      <trkpt lat="36.03809251450002" lon="139.32940964587033">
        <ele>64.49</ele>
      </trkpt>
      <trkpt lat="36.03838889859617" lon="139.32927679270506">
        <ele>64.98</ele>
      </trkpt>
      <trkpt lat="36.03868528269231" lon="139.32914385572076">
        <ele>65.32</ele>
      </trkpt>
      <trkpt lat="36.038810424506664" lon="139.32908778078854">
        <ele>65.6</ele>
      </trkpt>
      <trkpt lat="36.03900128044188" lon="139.32898317463696">
        <ele>65.81</ele>
      </trkpt>
      <trkpt lat="36.039270758628845" lon="139.32878125458956">
        <ele>65.98</ele>
      </trkpt>
      <trkpt lat="36.03954015299678" lon="139.3285794183612">
        <ele>66.09</ele>
      </trkpt>
      <trkpt lat="36.03958466090262" lon="139.32854605838656">
        <ele>66.17</ele>
      </trkpt>
      <trkpt lat="36.03986562229693" lon="139.3283693678677">
        <ele>66.2</ele>
      </trkpt>
      <trkpt lat="36.039968552067876" lon="139.32830465957522">
        <ele>66.21</ele>
      </trkpt>
      <trkpt lat="36.04026233777404" lon="139.32816308923066">
        <ele>66.18</ele>
      </trkpt>
      <trkpt lat="36.04041966609657" lon="139.32808723300695">
        <ele>66.14</ele>
      </trkpt>
      <trkpt lat="36.040576742962" lon="139.3284240178764">
        <ele>66.15</ele>
      </trkpt>
      <trkpt lat="36.040733736008406" lon="139.32876088656485">
        <ele>65.95</ele>
      </trkpt>
      <trkpt lat="36.04084479622543" lon="139.32899901643395">
        <ele>65.86</ele>
      </trkpt>
      <trkpt lat="36.04089575819671" lon="139.32897529564798">
        <ele>65.77</ele>
      </trkpt>
      <trkpt lat="36.04102266021073" lon="139.3288596253842">
        <ele>65.67</ele>
      </trkpt>
      <trkpt lat="36.04111368767917" lon="139.3288183864206">
        <ele>65.57</ele>
      </trkpt>
      <trkpt lat="36.04116146452725" lon="139.32855955325067">
        <ele>65.48</ele>
      </trkpt>
      <trkpt lat="36.04137503542006" lon="139.32884545996785">
        <ele>65.39</ele>
      </trkpt>
      <trkpt lat="36.04147377423942" lon="139.32897755876184">
        <ele>65.31</ele>
      </trkpt>
      <trkpt lat="36.04151492938399" lon="139.32902223430574">
        <ele>65.23</ele>
      </trkpt>
      <trkpt lat="36.04172104038298" lon="139.32912776246667">
        <ele>65.15</ele>
      </trkpt>
      <trkpt lat="36.041967049241066" lon="139.32888477109373">
        <ele>65.08</ele>
      </trkpt>
      <trkpt lat="36.04220140725374" lon="139.32865351438522">
        <ele>65.0</ele>
      </trkpt>
      <trkpt lat="36.04243920184672" lon="139.32839828543365">
        <ele>64.97</ele>
      </trkpt>
      <trkpt lat="36.042676996439695" lon="139.3281431403011">
        <ele>64.74</ele>
      </trkpt>
      <trkpt lat="36.04284010827541" lon="139.32796820998192">
        <ele>64.53</ele>
      </trkpt>
      <trkpt lat="36.04306767694652" lon="139.32769923470914">
        <ele>64.82</ele>
      </trkpt>
      <trkpt lat="36.04325434193015" lon="139.32747862301767">
        <ele>64.81</ele>
      </trkpt>
    </trkseg>
  </trk>
</gpx>
