<?xml version="1.0" encoding="UTF-8"?>
<gpx creator="Garmin Connect" version="1.1"
  xsi:schemaLocation="http://www.topografix.com/GPX/1/1 http://www.topografix.com/GPX/11.xsd"
  xmlns:ns3="http://www.garmin.com/xmlschemas/TrackPointExtension/v1"
  xmlns="http://www.topografix.com/GPX/1/1"
  xmlns:xsi="http://www.w3.org/2001/XMLSchema-instance" xmlns:ns2="http://www.garmin.com/xmlschemas/GpxExtensions/v3">
  <metadata>
    <name>嵐山町</name>
    <link href="connect.garmin.com">
      <text>Garmin Connect</text>
    </link>
    <time>2026-07-12T07:28:11.000Z</time>
  </metadata>
  <trk>
    <name>嵐山町</name>
    <trkseg>
      <trkpt lat="36.04380997829139" lon="139.32817993685603">
        <ele>67.74</ele>
      </trkpt>
      <trkpt lat="36.04359079152346" lon="139.32790065184236">
        <ele>67.92</ele>
      </trkpt>
      <trkpt lat="36.04337160475552" lon="139.32762128300965">
        <ele>68.18</ele>
      </trkpt>
      <trkpt lat="36.043299939483404" lon="139.32752992026508">
        <ele>68.45</ele>
      </trkpt>
      <trkpt lat="36.04313992895186" lon="139.32731995359063">
        <ele>68.67</ele>
      </trkpt>
      <trkpt lat="36.04291998781264" lon="139.3270415905863">
        <ele>68.91</ele>
      </trkpt>
      <trkpt lat="36.04270004667342" lon="139.32676322758198">
        <ele>69.21</ele>
      </trkpt>
      <trkpt lat="36.04249997064471" lon="139.32650992646813">
        <ele>69.35</ele>
      </trkpt>
      <trkpt lat="36.04252997785807" lon="139.32645997032523">
        <ele>69.47</ele>
      </trkpt>
      <trkpt lat="36.042313389480114" lon="139.32617750018835">
        <ele>69.57</ele>
      </trkpt>
      <trkpt lat="36.04229997843504" lon="139.32615998201072">
        <ele>69.62</ele>
      </trkpt>
      <trkpt lat="36.04205748997629" lon="139.32591154240072">
        <ele>69.76</ele>
      </trkpt>
      <trkpt lat="36.04188993573189" lon="139.3257399648428">
        <ele>69.75</ele>
      </trkpt>
      <trkpt lat="36.04163856245577" lon="139.32550535537302">
        <ele>69.67</ele>
      </trkpt>
      <trkpt lat="36.04143999516964" lon="139.32531994767487">
        <ele>69.53</ele>
      </trkpt>
      <trkpt lat="36.04119968600571" lon="139.32506823912263">
        <ele>69.33</ele>
      </trkpt>
      <trkpt lat="36.040959460660815" lon="139.32481661438942">
        <ele>69.06</ele>
      </trkpt>
      <trkpt lat="36.04071923531592" lon="139.32456490583718">
        <ele>68.57</ele>
      </trkpt>
      <trkpt lat="36.04047900997102" lon="139.32431328110397">
        <ele>68.09</ele>
      </trkpt>
      <trkpt lat="36.04038999415934" lon="139.32421999052167">
        <ele>67.63</ele>
      </trkpt>
      <trkpt lat="36.040171813219786" lon="139.32393944822252">
        <ele>67.18</ele>
      </trkpt>
      <trkpt lat="36.04010995477438" lon="139.32385998778045">
        <ele>66.78</ele>
      </trkpt>
      <trkpt lat="36.0400399658829" lon="139.3237499333918">
        <ele>66.38</ele>
      </trkpt>
      <trkpt lat="36.03992999531329" lon="139.3238199222833">
        <ele>65.99</ele>
      </trkpt>
      <trkpt lat="36.03973997756839" lon="139.32402997277677">
        <ele>65.58</ele>
      </trkpt>
      <trkpt lat="36.03952992707491" lon="139.32424999773502">
        <ele>65.18</ele>
      </trkpt>
      <trkpt lat="36.039348961785436" lon="139.32393190450966">
        <ele>64.93</ele>
      </trkpt>
      <trkpt lat="36.039199931547046" lon="139.32366997003555">
        <ele>64.55</ele>
      </trkpt>
      <trkpt lat="36.0389846842736" lon="139.32338615879416">
        <ele>63.99</ele>
      </trkpt>
      <trkpt lat="36.038979990407825" lon="139.32337995618582">
        <ele>63.65</ele>
      </trkpt>
      <trkpt lat="36.03874269872904" lon="139.323124056682">
        <ele>63.18</ele>
      </trkpt>
      <trkpt lat="36.03850540705025" lon="139.32286815717816">
        <ele>62.95</ele>
      </trkpt>
      <trkpt lat="36.038469951599836" lon="139.3228299356997">
        <ele>62.78</ele>
      </trkpt>
      <trkpt lat="36.038379929959774" lon="139.32266992516816">
        <ele>62.72</ele>
      </trkpt>
      <trkpt lat="36.038359981030226" lon="139.32254998013377">
        <ele>62.74</ele>
      </trkpt>
      <trkpt lat="36.03821933269501" lon="139.3228975776583">
        <ele>62.68</ele>
      </trkpt>
      <trkpt lat="36.03807868435979" lon="139.32324525900185">
        <ele>62.75</ele>
      </trkpt>
      <trkpt lat="36.03799997828901" lon="139.32343997061253">
        <ele>62.84</ele>
      </trkpt>
      <trkpt lat="36.0379899200052" lon="139.32345991954207">
        <ele>63.06</ele>
      </trkpt>
      <trkpt lat="36.03769529610872" lon="139.32332128286362">
        <ele>63.53</ele>
      </trkpt>
      <trkpt lat="36.037649950012565" lon="139.32329999282956">
        <ele>63.94</ele>
      </trkpt>
      <trkpt lat="36.037929989397526" lon="139.32341993786395">
        <ele>64.17</ele>
      </trkpt>
      <trkpt lat="36.0379899200052" lon="139.32345991954207">
        <ele>63.06</ele>
      </trkpt>
      <trkpt lat="36.03813199326396" lon="139.32311316020787">
        <ele>65.22</ele>
      </trkpt>
      <trkpt lat="36.03827406652272" lon="139.32276640087366">
        <ele>65.83</ele>
      </trkpt>
      <trkpt lat="36.03832997381687" lon="139.32262994349003">
        <ele>66.47</ele>
      </trkpt>
      <trkpt lat="36.03808513842523" lon="139.3223851080984">
        <ele>67.33</ele>
      </trkpt>
      <trkpt lat="36.0379899200052" lon="139.3222899734974">
        <ele>68.08</ele>
      </trkpt>
      <trkpt lat="36.03783996775746" lon="139.32200993411243">
        <ele>68.8</ele>
      </trkpt>
      <trkpt lat="36.03782999329269" lon="139.32182997465134">
        <ele>69.37</ele>
      </trkpt>
      <trkpt lat="36.03783996775746" lon="139.3216499313712">
        <ele>69.85</ele>
      </trkpt>
      <trkpt lat="36.03788606822491" lon="139.32126578874886">
        <ele>70.28</ele>
      </trkpt>
      <trkpt lat="36.03789998218417" lon="139.32114995084703">
        <ele>70.73</ele>
      </trkpt>
      <trkpt lat="36.03785991668701" lon="139.32088994421065">
        <ele>71.12</ele>
      </trkpt>
      <trkpt lat="36.03769965469837" lon="139.3205555062741">
        <ele>71.34</ele>
      </trkpt>
      <trkpt lat="36.037629917263985" lon="139.32040999643505">
        <ele>71.46</ele>
      </trkpt>
      <trkpt lat="36.03742984123528" lon="139.32010975666344">
        <ele>71.41</ele>
      </trkpt>
      <trkpt lat="36.03740997612476" lon="139.32007991708815">
        <ele>71.33</ele>
      </trkpt>
      <trkpt lat="36.037369994446635" lon="139.31990993209183">
        <ele>71.1</ele>
      </trkpt>
      <trkpt lat="36.037364546209574" lon="139.31952168233693">
        <ele>70.79</ele>
      </trkpt>
      <trkpt lat="36.03735993616283" lon="139.3191899266094">
        <ele>70.49</ele>
      </trkpt>
      <trkpt lat="36.03730998001993" lon="139.31884995661676">
        <ele>70.22</ele>
      </trkpt>
      <trkpt lat="36.0370799805969" lon="139.3188999965787">
        <ele>69.56</ele>
      </trkpt>
      <trkpt lat="36.03678678162396" lon="139.3190432433039">
        <ele>68.47</ele>
      </trkpt>
      <trkpt lat="36.03649358265102" lon="139.3191864900291">
        <ele>67.25</ele>
      </trkpt>
      <trkpt lat="36.03620038367808" lon="139.3193297367543">
        <ele>66.25</ele>
      </trkpt>
      <trkpt lat="36.03619996458292" lon="139.3193299882114">
        <ele>65.17</ele>
      </trkpt>
      <trkpt lat="36.03597993962467" lon="139.3194999732077">
        <ele>64.17</ele>
      </trkpt>
      <trkpt lat="36.03566771373153" lon="139.31955504231155">
        <ele>63.07</ele>
      </trkpt>
      <trkpt lat="36.03546998463571" lon="139.31958999484777">
        <ele>61.68</ele>
      </trkpt>
      <trkpt lat="36.03515859693289" lon="139.3196521885693">
        <ele>60.06</ele>
      </trkpt>
      <trkpt lat="36.03506991639733" lon="139.31966995820403">
        <ele>58.44</ele>
      </trkpt>
      <trkpt lat="36.03476129472256" lon="139.31975000537932">
        <ele>56.48</ele>
      </trkpt>
      <trkpt lat="36.03445267304778" lon="139.31982996873558">
        <ele>54.75</ele>
      </trkpt>
      <trkpt lat="36.03414396755397" lon="139.31991001591086">
        <ele>53.21</ele>
      </trkpt>
      <trkpt lat="36.03398999199271" lon="139.319949997589">
        <ele>51.57</ele>
      </trkpt>
      <trkpt lat="36.03368950076401" lon="139.3200681824237">
        <ele>49.73</ele>
      </trkpt>
      <trkpt lat="36.033389093354344" lon="139.32018645107746">
        <ele>48.06</ele>
      </trkpt>
      <trkpt lat="36.033088602125645" lon="139.3203047197312">
        <ele>46.54</ele>
      </trkpt>
      <trkpt lat="36.033049961552024" lon="139.32031997479498">
        <ele>45.26</ele>
      </trkpt>
      <trkpt lat="36.03274771012366" lon="139.32043095119298">
        <ele>43.81</ele>
      </trkpt>
      <trkpt lat="36.03244537487626" lon="139.32054184377193">
        <ele>42.56</ele>
      </trkpt>
      <trkpt lat="36.032259967178106" lon="139.32060998864472">
        <ele>41.76</ele>
      </trkpt>
      <trkpt lat="36.03195805102587" lon="139.3207225576043">
        <ele>41.37</ele>
      </trkpt>
      <trkpt lat="36.03165621869266" lon="139.32083521038294">
        <ele>40.86</ele>
      </trkpt>
      <trkpt lat="36.03158991783857" lon="139.3208599369973">
        <ele>40.34</ele>
      </trkpt>
      <trkpt lat="36.031682370230556" lon="139.3212312553078">
        <ele>39.62</ele>
      </trkpt>
      <trkpt lat="36.031774738803506" lon="139.3216025736183">
        <ele>39.3</ele>
      </trkpt>
      <trkpt lat="36.031867107376456" lon="139.3219738919288">
        <ele>39.29</ele>
      </trkpt>
      <trkpt lat="36.03195955976844" lon="139.3223452102393">
        <ele>39.15</ele>
      </trkpt>
      <trkpt lat="36.03205192834139" lon="139.32271644473076">
        <ele>38.94</ele>
      </trkpt>
      <trkpt lat="36.032129963859916" lon="139.32302992790937">
        <ele>38.7</ele>
      </trkpt>
      <trkpt lat="36.03222384117544" lon="139.32340074330568">
        <ele>38.6</ele>
      </trkpt>
      <trkpt lat="36.03231763467193" lon="139.32377147488296">
        <ele>38.53</ele>
      </trkpt>
      <trkpt lat="36.03241151198745" lon="139.32414220646024">
        <ele>38.56</ele>
      </trkpt>
      <trkpt lat="36.03250538930297" lon="139.32451293803751">
        <ele>38.4</ele>
      </trkpt>
      <trkpt lat="36.03252994827926" lon="139.3246099166572">
        <ele>38.35</ele>
      </trkpt>
      <trkpt lat="36.032619969919324" lon="139.32467998936772">
        <ele>38.31</ele>
      </trkpt>
      <trkpt lat="36.03256213478744" lon="139.32506170123816">
        <ele>38.3</ele>
      </trkpt>
      <trkpt lat="36.03250429965556" lon="139.32544349692762">
        <ele>38.32</ele>
      </trkpt>
      <trkpt lat="36.03246993385255" lon="139.3256699759513">
        <ele>38.41</ele>
      </trkpt>
      <trkpt lat="36.032437244430184" lon="139.32605621404946">
        <ele>38.51</ele>
      </trkpt>
      <trkpt lat="36.03241997770965" lon="139.32625997811556">
        <ele>38.61</ele>
      </trkpt>
      <trkpt lat="36.032389886677265" lon="139.32664655148983">
        <ele>38.79</ele>
      </trkpt>
      <trkpt lat="36.03235979564488" lon="139.3270331248641">
        <ele>38.97</ele>
      </trkpt>
      <trkpt lat="36.03234998881817" lon="139.3271599430591">
        <ele>39.04</ele>
      </trkpt>
      <trkpt lat="36.032259967178106" lon="139.32720998302102">
        <ele>39.14</ele>
      </trkpt>
      <trkpt lat="36.031963834539056" lon="139.3273436743766">
        <ele>39.18</ele>
      </trkpt>
      <trkpt lat="36.03194992057979" lon="139.32734996080399">
        <ele>39.17</ele>
      </trkpt>
      <trkpt lat="36.03192997165024" lon="139.3273899424821">
        <ele>39.12</ele>
      </trkpt>
      <trkpt lat="36.032019993290305" lon="139.3277099635452">
        <ele>39.08</ele>
      </trkpt>
      <trkpt lat="36.03215997107327" lon="139.32797994464636">
        <ele>38.98</ele>
      </trkpt>
      <trkpt lat="36.032189978286624" lon="139.32797994464636">
        <ele>38.86</ele>
      </trkpt>
      <trkpt lat="36.03226994164288" lon="139.32793996296823">
        <ele>38.71</ele>
      </trkpt>
      <trkpt lat="36.03230992332101" lon="139.327949937433">
        <ele>38.57</ele>
      </trkpt>
      <trkpt lat="36.03233993053436" lon="139.32805999182165">
        <ele>38.42</ele>
      </trkpt>
      <trkpt lat="36.03233096189797" lon="139.32844815775752">
        <ele>38.25</ele>
      </trkpt>
      <trkpt lat="36.03232995606959" lon="139.32848998345435">
        <ele>38.17</ele>
      </trkpt>
      <trkpt lat="36.03229735046625" lon="139.3288762215525">
        <ele>38.13</ele>
      </trkpt>
      <trkpt lat="36.032264828681946" lon="139.32926245965064">
        <ele>38.12</ele>
      </trkpt>
      <trkpt lat="36.032259967178106" lon="139.3293199595064">
        <ele>38.14</ele>
      </trkpt>
      <trkpt lat="36.032204227522016" lon="139.32970217429101">
        <ele>38.16</ele>
      </trkpt>
      <trkpt lat="36.032189978286624" lon="139.32979999110103">
        <ele>38.31</ele>
      </trkpt>
      <trkpt lat="36.03209936991334" lon="139.33017189614475">
        <ele>38.55</ele>
      </trkpt>
      <trkpt lat="36.032008761540055" lon="139.3305438850075">
        <ele>38.79</ele>
      </trkpt>
      <trkpt lat="36.031999960541725" lon="139.33057992719114">
        <ele>39.11</ele>
      </trkpt>
      <trkpt lat="36.03189996443689" lon="139.33087999932468">
        <ele>39.51</ele>
      </trkpt>
      <trkpt lat="36.031809942796826" lon="139.33106993325055">
        <ele>39.94</ele>
      </trkpt>
      <trkpt lat="36.03152043186128" lon="139.33112382888794">
        <ele>40.5</ele>
      </trkpt>
      <trkpt lat="36.03128481656313" lon="139.33138199150562">
        <ele>41.04</ele>
      </trkpt>
      <trkpt lat="36.031062779948115" lon="139.33162540197372">
        <ele>41.62</ele>
      </trkpt>
      <trkpt lat="36.03088273666799" lon="139.33171391487122">
        <ele>42.29</ele>
      </trkpt>
      <trkpt lat="36.03062675334513" lon="139.33172196149826">
        <ele>43.09</ele>
      </trkpt>
      <trkpt lat="36.03032726794481" lon="139.33160000480711">
        <ele>43.93</ele>
      </trkpt>
      <trkpt lat="36.030027782544494" lon="139.33147804811597">
        <ele>44.63</ele>
      </trkpt>
      <trkpt lat="36.029921835288405" lon="139.33143496513367">
        <ele>45.28</ele>
      </trkpt>
      <trkpt lat="36.02961178869009" lon="139.33136321604252">
        <ele>45.89</ele>
      </trkpt>
      <trkpt lat="36.02930182591081" lon="139.33129146695137">
        <ele>46.55</ele>
      </trkpt>
      <trkpt lat="36.02924935519695" lon="139.3312793970108">
        <ele>47.11</ele>
      </trkpt>
      <trkpt lat="36.02894098497927" lon="139.33119758963585">
        <ele>47.71</ele>
      </trkpt>
      <trkpt lat="36.02863269858062" lon="139.33111586607993">
        <ele>48.12</ele>
      </trkpt>
      <trkpt lat="36.02832432836294" lon="139.331034142524">
        <ele>48.45</ele>
      </trkpt>
      <trkpt lat="36.02801595814526" lon="139.33095233514905">
        <ele>48.75</ele>
      </trkpt>
      <trkpt lat="36.02786332368851" lon="139.33091193437576">
        <ele>48.99</ele>
      </trkpt>
      <trkpt lat="36.02756241336465" lon="139.33079509064555">
        <ele>49.23</ele>
      </trkpt>
      <trkpt lat="36.02726158685982" lon="139.33067833073437">
        <ele>49.34</ele>
      </trkpt>
      <trkpt lat="36.027117082849145" lon="139.33062225580215">
        <ele>49.38</ele>
      </trkpt>
      <trkpt lat="36.02680644951761" lon="139.33055486530066">
        <ele>49.33</ele>
      </trkpt>
      <trkpt lat="36.02649581618607" lon="139.33048747479916">
        <ele>49.46</ele>
      </trkpt>
      <trkpt lat="36.02620169520378" lon="139.33042377233505">
        <ele>49.47</ele>
      </trkpt>
      <trkpt lat="36.026184344664216" lon="139.33047473430634">
        <ele>49.29</ele>
      </trkpt>
      <trkpt lat="36.0264943074435" lon="139.33054665103555">
        <ele>48.96</ele>
      </trkpt>
      <trkpt lat="36.02680427022278" lon="139.3306186515838">
        <ele>48.53</ele>
      </trkpt>
      <trkpt lat="36.02710836566985" lon="139.33068931102753">
        <ele>48.27</ele>
      </trkpt>
      <trkpt lat="36.027407767251134" lon="139.33081151917577">
        <ele>47.95</ele>
      </trkpt>
      <trkpt lat="36.02770716883242" lon="139.33093381114304">
        <ele>47.49</ele>
      </trkpt>
      <trkpt lat="36.027817726135254" lon="139.33097898960114">
        <ele>46.98</ele>
      </trkpt>
      <trkpt lat="36.0278670117259" lon="139.33136246167123">
        <ele>46.36</ele>
      </trkpt>
      <trkpt lat="36.02791638113558" lon="139.33174601756036">
        <ele>45.76</ele>
      </trkpt>
      <trkpt lat="36.02796566672623" lon="139.3321295734495">
        <ele>45.17</ele>
      </trkpt>
      <trkpt lat="36.02801503613591" lon="139.33251312933862">
        <ele>44.58</ele>
      </trkpt>
      <trkpt lat="36.02806432172656" lon="139.33289668522775">
        <ele>43.81</ele>
      </trkpt>
      <trkpt lat="36.02809541858733" lon="139.33313816785812">
        <ele>43.11</ele>
      </trkpt>
      <trkpt lat="36.028267834335566" lon="139.33346330188215">
        <ele>42.36</ele>
      </trkpt>
      <trkpt lat="36.028440250083804" lon="139.3337885197252">
        <ele>41.84</ele>
      </trkpt>
      <trkpt lat="36.02852490730584" lon="139.33394819498062">
        <ele>41.28</ele>
      </trkpt>
      <trkpt lat="36.02873579598963" lon="139.33423686772585">
        <ele>40.66</ele>
      </trkpt>
      <trkpt lat="36.02894676849246" lon="139.3345256242901">
        <ele>40.08</ele>
      </trkpt>
      <trkpt lat="36.029157657176256" lon="139.33481429703534">
        <ele>39.58</ele>
      </trkpt>
      <trkpt lat="36.029368629679084" lon="139.3351030535996">
        <ele>39.1</ele>
      </trkpt>
      <trkpt lat="36.02951833046973" lon="139.33530807495117">
        <ele>38.65</ele>
      </trkpt>
      <trkpt lat="36.029719999060035" lon="139.33560663834214">
        <ele>38.29</ele>
      </trkpt>
      <trkpt lat="36.02992158383131" lon="139.33590528555214">
        <ele>38.18</ele>
      </trkpt>
      <trkpt lat="36.03012325242162" lon="139.33620393276215">
        <ele>38.2</ele>
      </trkpt>
      <trkpt lat="36.030324921011925" lon="139.33650257997215">
        <ele>38.25</ele>
      </trkpt>
      <trkpt lat="36.03048359043896" lon="139.3367376923561">
        <ele>38.26</ele>
      </trkpt>
      <trkpt lat="36.03051829151809" lon="139.33668941259384">
        <ele>38.18</ele>
      </trkpt>
      <trkpt lat="36.030507478863" lon="139.33660358190536">
        <ele>38.04</ele>
      </trkpt>
      <trkpt lat="36.03030136786401" lon="139.33630962856114">
        <ele>37.72</ele>
      </trkpt>
      <trkpt lat="36.030095256865025" lon="139.3360156752169">
        <ele>37.37</ele>
      </trkpt>
      <trkpt lat="36.029889145866036" lon="139.3357217218727">
        <ele>37.08</ele>
      </trkpt>
      <trkpt lat="36.02968295104802" lon="139.33542776852846">
        <ele>36.97</ele>
      </trkpt>
      <trkpt lat="36.02947684004903" lon="139.33513381518424">
        <ele>37.06</ele>
      </trkpt>
      <trkpt lat="36.02929059416056" lon="139.33486819267273">
        <ele>37.11</ele>
      </trkpt>
      <trkpt lat="36.029245080426335" lon="139.33483868837357">
        <ele>37.06</ele>
      </trkpt>
      <trkpt lat="36.029501650482416" lon="139.33461271226406">
        <ele>36.99</ele>
      </trkpt>
      <trkpt lat="36.02965931408107" lon="139.33447390794754">
        <ele>36.81</ele>
      </trkpt>
      <trkpt lat="36.02987992577255" lon="139.33419621549547">
        <ele>36.59</ele>
      </trkpt>
      <trkpt lat="36.03010045364499" lon="139.33391860686243">
        <ele>36.66</ele>
      </trkpt>
      <trkpt lat="36.030320981517434" lon="139.33364091441035">
        <ele>36.9</ele>
      </trkpt>
      <trkpt lat="36.03054150938988" lon="139.3333633057773">
        <ele>37.02</ele>
      </trkpt>
      <trkpt lat="36.03076203726232" lon="139.33308569714427">
        <ele>37.06</ele>
      </trkpt>
      <trkpt lat="36.030978206545115" lon="139.33281362056732">
        <ele>37.05</ele>
      </trkpt>
      <trkpt lat="36.03111919015646" lon="139.33256953954697">
        <ele>36.93</ele>
      </trkpt>
      <trkpt lat="36.031187335029244" lon="139.3321903422475">
        <ele>36.89</ele>
      </trkpt>
      <trkpt lat="36.03119295090437" lon="139.3321591615677">
        <ele>36.84</ele>
      </trkpt>
      <trkpt lat="36.0312189348042" lon="139.33192312717438">
        <ele>36.78</ele>
      </trkpt>
      <trkpt lat="36.031210301443934" lon="139.3317273259163">
        <ele>36.77</ele>
      </trkpt>
      <trkpt lat="36.031121369451284" lon="139.33164954185486">
        <ele>36.75</ele>
      </trkpt>
      <trkpt lat="36.03134583681822" lon="139.33137671090662">
        <ele>36.73</ele>
      </trkpt>
      <trkpt lat="36.03137081488967" lon="139.33134645223618">
        <ele>36.75</ele>
      </trkpt>
      <trkpt lat="36.03157248347998" lon="139.33117747306824">
        <ele>36.8</ele>
      </trkpt>
      <trkpt lat="36.03178077377379" lon="139.33114260435104">
        <ele>36.87</ele>
      </trkpt>
      <trkpt lat="36.03209341876209" lon="139.33119365014136">
        <ele>36.94</ele>
      </trkpt>
      <trkpt lat="36.03240614756942" lon="139.3312447797507">
        <ele>37.18</ele>
      </trkpt>
      <trkpt lat="36.032420648261905" lon="139.33124721050262">
        <ele>37.66</ele>
      </trkpt>
      <trkpt lat="36.03241997770965" lon="139.33124997653067">
        <ele>38.29</ele>
      </trkpt>
      <trkpt lat="36.03273446671665" lon="139.3312791455537">
        <ele>39.04</ele>
      </trkpt>
      <trkpt lat="36.033049039542675" lon="139.33130831457675">
        <ele>40.12</ele>
      </trkpt>
      <trkpt lat="36.0333636123687" lon="139.33133748359978">
        <ele>41.49</ele>
      </trkpt>
      <trkpt lat="36.03338993154466" lon="139.33133999817073">
        <ele>42.67</ele>
      </trkpt>
      <trkpt lat="36.033705258741975" lon="139.3313306942582">
        <ele>44.2</ele>
      </trkpt>
      <trkpt lat="36.03372998535633" lon="139.33132993988693">
        <ele>45.54</ele>
      </trkpt>
      <trkpt lat="36.03385998867452" lon="139.33127998374403">
        <ele>47.05</ele>
      </trkpt>
      <trkpt lat="36.03413550183177" lon="139.3310909718275">
        <ele>48.62</ele>
      </trkpt>
      <trkpt lat="36.03420993313193" lon="139.3310399260372">
        <ele>50.14</ele>
      </trkpt>
      <trkpt lat="36.03439995087683" lon="139.33092995546758">
        <ele>51.77</ele>
      </trkpt>
      <trkpt lat="36.034619975835085" lon="139.33086994104087">
        <ele>53.49</ele>
      </trkpt>
      <trkpt lat="36.03493329137564" lon="139.33082518167794">
        <ele>55.17</ele>
      </trkpt>
      <trkpt lat="36.0349699202925" lon="139.33081998489797">
        <ele>56.29</ele>
      </trkpt>
      <trkpt lat="36.03528466075659" lon="139.33079333044589">
        <ele>57.27</ele>
      </trkpt>
      <trkpt lat="36.03555992245674" lon="139.33076994493604">
        <ele>57.95</ele>
      </trkpt>
      <trkpt lat="36.03587164543569" lon="139.33071060106158">
        <ele>58.78</ele>
      </trkpt>
      <trkpt lat="36.03597993962467" lon="139.33068998157978">
        <ele>59.69</ele>
      </trkpt>
      <trkpt lat="36.036284705623984" lon="139.33058973401785">
        <ele>60.67</ele>
      </trkpt>
      <trkpt lat="36.0365894716233" lon="139.33048957027495">
        <ele>61.54</ele>
      </trkpt>
      <trkpt lat="36.03670991957188" lon="139.33044992387295">
        <ele>62.33</ele>
      </trkpt>
      <trkpt lat="36.03698995895684" lon="139.33030994608998">
        <ele>63.05</ele>
      </trkpt>
      <trkpt lat="36.03713999502361" lon="139.33019997552037">
        <ele>63.79</ele>
      </trkpt>
      <trkpt lat="36.03739254176617" lon="139.32996729388833">
        <ele>64.67</ele>
      </trkpt>
      <trkpt lat="36.037519946694374" lon="139.32984994724393">
        <ele>65.44</ele>
      </trkpt>
      <trkpt lat="36.03779336437583" lon="139.32965632528067">
        <ele>66.25</ele>
      </trkpt>
      <trkpt lat="36.03799997828901" lon="139.3295099772513">
        <ele>66.96</ele>
      </trkpt>
      <trkpt lat="36.03829217143357" lon="139.32936379685998">
        <ele>67.49</ele>
      </trkpt>
      <trkpt lat="36.03847992606461" lon="139.32926991954446">
        <ele>67.98</ele>
      </trkpt>
      <trkpt lat="36.03877714835107" lon="139.32913991622627">
        <ele>68.44</ele>
      </trkpt>
      <trkpt lat="36.038959957659245" lon="139.32905995287">
        <ele>68.85</ele>
      </trkpt>
      <trkpt lat="36.039231531322" lon="139.3288624752313">
        <ele>69.17</ele>
      </trkpt>
      <trkpt lat="36.03950310498476" lon="139.32866491377354">
        <ele>69.37</ele>
      </trkpt>
      <trkpt lat="36.03972991928458" lon="139.32849995791912">
        <ele>69.6</ele>
      </trkpt>
      <trkpt lat="36.03997995145619" lon="139.32834992185235">
        <ele>69.87</ele>
      </trkpt>
      <trkpt lat="36.0400399658829" lon="139.32834992185235">
        <ele>70.02</ele>
      </trkpt>
      <trkpt lat="36.04033123701811" lon="139.32820089161396">
        <ele>70.13</ele>
      </trkpt>
      <trkpt lat="36.04062250815332" lon="139.32805177755654">
        <ele>70.25</ele>
      </trkpt>
      <trkpt lat="36.04087991639972" lon="139.32791993021965">
        <ele>70.27</ele>
      </trkpt>
      <trkpt lat="36.04092995636165" lon="139.32790995575488">
        <ele>70.22</ele>
      </trkpt>
      <trkpt lat="36.041019978001714" lon="139.32791993021965">
        <ele>70.12</ele>
      </trkpt>
      <trkpt lat="36.04103992693126" lon="139.32784994132817">
        <ele>69.96</ele>
      </trkpt>
      <trkpt lat="36.04128107428551" lon="139.32810039259493">
        <ele>69.69</ele>
      </trkpt>
      <trkpt lat="36.04129993356764" lon="139.32811992242932">
        <ele>69.56</ele>
      </trkpt>
      <trkpt lat="36.041512582451105" lon="139.3278330937028">
        <ele>69.48</ele>
      </trkpt>
      <trkpt lat="36.0417253151536" lon="139.32754626497626">
        <ele>69.36</ele>
      </trkpt>
      <trkpt lat="36.04193796403706" lon="139.32725943624973">
        <ele>69.3</ele>
      </trkpt>
      <trkpt lat="36.04215061292052" lon="139.3269726075232">
        <ele>69.28</ele>
      </trkpt>
      <trkpt lat="36.04215991683304" lon="139.3269599508494">
        <ele>69.13</ele>
      </trkpt>
      <trkpt lat="36.04233996011317" lon="139.3267199769616">
        <ele>68.9</ele>
      </trkpt>
    </trkseg>
  </trk>
</gpx>
